[{"OBJECT_NAME":"STARLINK-36945","OBJECT_ID":"2026-041L","EPOCH":"2026-03-16T20:00:01.999008","MEAN_MOTION":15.80829615,"ECCENTRICITY":0.0001371,"INCLINATION":53.1598,"RA_OF_ASC_NODE":26.2605,"ARG_OF_PERICENTER":93.7252,"MEAN_ANOMALY":105.9256,"EPHEMERIS_TYPE":0,"CLASSIFICATION_TYPE":"U","NORAD_CAT_ID":68050,"ELEMENT_SET_NO":999,"REV_AT_EPOCH":352,"BSTAR":0.0006645,"MEAN_MOTION_DOT":0.00132213,"MEAN_MOTION_DDOT":0},{"OBJECT_NAME":"STARLINK-35911","OBJECT_ID":"2026-041M","EPOCH":"2026-03-16T20:00:01.999008","MEAN_MOTION":15.80858692,"ECCENTRICITY":0.0001638,"INCLINATION":53.1598,"RA_OF_ASC_NODE":26.2434,"ARG_OF_PERICENTER":62.9783,"MEAN_ANOMALY":145.1965,"EPHEMERIS_TYPE":0,"CLASSIFICATION_TYPE":"U","NORAD_CAT_ID":68051,"ELEMENT_SET_NO":999,"REV_AT_EPOCH":348,"BSTAR":0.00022718,"MEAN_MOTION_DOT":0.0004434,"MEAN_MOTION_DDOT":0},{"OBJECT_NAME":"STARLINK-35808","OBJECT_ID":"2026-041N","EPOCH":"2026-03-16T20:00:01.999008","MEAN_MOTION":15.80810601,"ECCENTRICITY":0.0001529,"INCLINATION":53.1599,"RA_OF_ASC_NODE":26.2337,"ARG_OF_PERICENTER":88.9918,"MEAN_ANOMALY":123.4702,"EPHEMERIS_TYPE":0,"CLASSIFICATION_TYPE":"U","NORAD_CAT_ID":68052,"ELEMENT_SET_NO":999,"REV_AT_EPOCH":348,"BSTAR":0.00085048,"MEAN_MOTION_DOT":0.00170012,"MEAN_MOTION_DDOT":0},{"OBJECT_NAME":"STARLINK-36919","OBJECT_ID":"2026-041P","EPOCH":"2026-03-16T20:00:01.999008","MEAN_MOTION":15.80850235,"ECCENTRICITY":0.00013,"INCLINATION":53.16,"RA_OF_ASC_NODE":26.225,"ARG_OF_PERICENTER":73.7835,"MEAN_ANOMALY":142.9612,"EPHEMERIS_TYPE":0,"CLASSIFICATION_TYPE":"U","NORAD_CAT_ID":68053,"ELEMENT_SET_NO":999,"REV_AT_EPOCH":352,"BSTAR":0.00021103,"MEAN_MOTION_DOT":0.00041106,"MEAN_MOTION_DDOT":0},{"OBJECT_NAME":"STARLINK-36924","OBJECT_ID":"2026-041Q","EPOCH":"2026-03-16T20:00:01.999008","MEAN_MOTION":15.75300037,"ECCENTRICITY":0.0001117,"INCLINATION":53.1602,"RA_OF_ASC_NODE":26.2698,"ARG_OF_PERICENTER":91.0967,"MEAN_ANOMALY":103.9623,"EPHEMERIS_TYPE":0,"CLASSIFICATION_TYPE":"U","NORAD_CAT_ID":68054,"ELEMENT_SET_NO":999,"REV_AT_EPOCH":352,"BSTAR":-0.00057487,"MEAN_MOTION_DOT":-0.00088081,"MEAN_MOTION_DDOT":0},{"OBJECT_NAME":"STARLINK-35998","OBJECT_ID":"2026-041R","EPOCH":"2026-03-16T20:00:01.999008","MEAN_MOTION":15.80832128,"ECCENTRICITY":0.0001447,"INCLINATION":53.16,"RA_OF_ASC_NODE":26.2163,"ARG_OF_PERICENTER":72.8883,"MEAN_ANOMALY":148.1063,"EPHEMERIS_TYPE":0,"CLASSIFICATION_TYPE":"U","NORAD_CAT_ID":68055,"ELEMENT_SET_NO":999,"REV_AT_EPOCH":348,"BSTAR":0.00055843,"MEAN_MOTION_DOT":0.00110731,"MEAN_MOTION_DDOT":0},{"OBJECT_NAME":"STARLINK-36845","OBJECT_ID":"2026-041S","EPOCH":"2026-03-16T20:00:01.999008","MEAN_MOTION":15.80863274,"ECCENTRICITY":8.06e-5,"INCLINATION":53.1598,"RA_OF_ASC_NODE":26.1986,"ARG_OF_PERICENTER":84.901,"MEAN_ANOMALY":144.6454,"EPHEMERIS_TYPE":0,"CLASSIFICATION_TYPE":"U","NORAD_CAT_ID":68056,"ELEMENT_SET_NO":999,"REV_AT_EPOCH":352,"BSTAR":0.00021059,"MEAN_MOTION_DOT":0.00041044,"MEAN_MOTION_DDOT":0},{"OBJECT_NAME":"STARLINK-36954","OBJECT_ID":"2026-041T","EPOCH":"2026-03-16T20:00:01.999008","MEAN_MOTION":15.75225574,"ECCENTRICITY":9.6e-5,"INCLINATION":53.16,"RA_OF_ASC_NODE":26.2652,"ARG_OF_PERICENTER":112.7996,"MEAN_ANOMALY":84.1757,"EPHEMERIS_TYPE":0,"CLASSIFICATION_TYPE":"U","NORAD_CAT_ID":68057,"ELEMENT_SET_NO":999,"REV_AT_EPOCH":352,"BSTAR":2.4448e-5,"MEAN_MOTION_DOT":3.108e-5,"MEAN_MOTION_DDOT":0},{"OBJECT_NAME":"STARLINK-36899","OBJECT_ID":"2026-041U","EPOCH":"2026-03-16T20:00:01.999008","MEAN_MOTION":15.75232272,"ECCENTRICITY":0.0001558,"INCLINATION":53.16,"RA_OF_ASC_NODE":26.2162,"ARG_OF_PERICENTER":97.9367,"MEAN_ANOMALY":122.9206,"EPHEMERIS_TYPE":0,"CLASSIFICATION_TYPE":"U","NORAD_CAT_ID":68058,"ELEMENT_SET_NO":999,"REV_AT_EPOCH":352,"BSTAR":-9.5079e-5,"MEAN_MOTION_DOT":-0.00015184,"MEAN_MOTION_DDOT":0},{"OBJECT_NAME":"STARLINK-36917","OBJECT_ID":"2026-041V","EPOCH":"2026-03-16T20:00:01.999008","MEAN_MOTION":15.8085786,"ECCENTRICITY":0.0001105,"INCLINATION":53.1599,"RA_OF_ASC_NODE":26.1723,"ARG_OF_PERICENTER":124.4233,"MEAN_ANOMALY":117.9365,"EPHEMERIS_TYPE":0,"CLASSIFICATION_TYPE":"U","NORAD_CAT_ID":68059,"ELEMENT_SET_NO":999,"REV_AT_EPOCH":352,"BSTAR":0.0002901,"MEAN_MOTION_DOT":0.00056894,"MEAN_MOTION_DDOT":0},{"OBJECT_NAME":"STARLINK-36959","OBJECT_ID":"2026-041W","EPOCH":"2026-03-16T20:00:01.999008","MEAN_MOTION":15.78057705,"ECCENTRICITY":0.000119,"INCLINATION":53.1598,"RA_OF_ASC_NODE":26.1698,"ARG_OF_PERICENTER":99.6898,"MEAN_ANOMALY":143.5183,"EPHEMERIS_TYPE":0,"CLASSIFICATION_TYPE":"U","NORAD_CAT_ID":68060,"ELEMENT_SET_NO":999,"REV_AT_EPOCH":352,"BSTAR":-0.012564,"MEAN_MOTION_DOT":-0.01901485,"MEAN_MOTION_DDOT":0},{"OBJECT_NAME":"STARLINK-36915","OBJECT_ID":"2026-041X","EPOCH":"2026-03-16T20:00:01.999008","MEAN_MOTION":15.80886217,"ECCENTRICITY":0.0001,"INCLINATION":53.1598,"RA_OF_ASC_NODE":26.1537,"ARG_OF_PERICENTER":95.0337,"MEAN_ANOMALY":155.858,"EPHEMERIS_TYPE":0,"CLASSIFICATION_TYPE":"U","NORAD_CAT_ID":68061,"ELEMENT_SET_NO":999,"REV_AT_EPOCH":352,"BSTAR":-3.9782e-6,"MEAN_MOTION_DOT":-1.484e-5,"MEAN_MOTION_DDOT":0},{"OBJECT_NAME":"STARLINK-36952","OBJECT_ID":"2026-041Y","EPOCH":"2026-03-16T20:00:01.999008","MEAN_MOTION":15.75254038,"ECCENTRICITY":0.0001248,"INCLINATION":53.16,"RA_OF_ASC_NODE":26.212,"ARG_OF_PERICENTER":106.6645,"MEAN_ANOMALY":116.0458,"EPHEMERIS_TYPE":0,"CLASSIFICATION_TYPE":"U","NORAD_CAT_ID":68062,"ELEMENT_SET_NO":999,"REV_AT_EPOCH":352,"BSTAR":-0.00030342,"MEAN_MOTION_DOT":-0.00046924,"MEAN_MOTION_DDOT":0},{"OBJECT_NAME":"STARLINK-37000","OBJECT_ID":"2026-041Z","EPOCH":"2026-03-16T20:00:01.999008","MEAN_MOTION":15.80867219,"ECCENTRICITY":0.0001169,"INCLINATION":53.1599,"RA_OF_ASC_NODE":26.1365,"ARG_OF_PERICENTER":93.2722,"MEAN_ANOMALY":166.1745,"EPHEMERIS_TYPE":0,"CLASSIFICATION_TYPE":"U","NORAD_CAT_ID":68063,"ELEMENT_SET_NO":999,"REV_AT_EPOCH":352,"BSTAR":8.7944e-5,"MEAN_MOTION_DOT":0.00016687,"MEAN_MOTION_DDOT":0},{"OBJECT_NAME":"STARLINK-36996","OBJECT_ID":"2026-041AA","EPOCH":"2026-03-16T20:00:01.999008","MEAN_MOTION":15.80877575,"ECCENTRICITY":9.42e-5,"INCLINATION":53.1598,"RA_OF_ASC_NODE":26.1273,"ARG_OF_PERICENTER":83.7197,"MEAN_ANOMALY":179.9891,"EPHEMERIS_TYPE":0,"CLASSIFICATION_TYPE":"U","NORAD_CAT_ID":68064,"ELEMENT_SET_NO":999,"REV_AT_EPOCH":352,"BSTAR":8.0488e-5,"MEAN_MOTION_DOT":0.00015218,"MEAN_MOTION_DDOT":0},{"OBJECT_NAME":"STARLINK-36836","OBJECT_ID":"2026-041AB","EPOCH":"2026-03-16T20:00:01.999008","MEAN_MOTION":15.80832943,"ECCENTRICITY":0.0001425,"INCLINATION":53.1597,"RA_OF_ASC_NODE":26.1097,"ARG_OF_PERICENTER":71.1979,"MEAN_ANOMALY":201.064,"EPHEMERIS_TYPE":0,"CLASSIFICATION_TYPE":"U","NORAD_CAT_ID":68065,"ELEMENT_SET_NO":999,"REV_AT_EPOCH":352,"BSTAR":0.00066178,"MEAN_MOTION_DOT":0.0013168,"MEAN_MOTION_DDOT":0},{"OBJECT_NAME":"STARLINK-36976","OBJECT_ID":"2026-041AC","EPOCH":"2026-03-16T20:00:01.999008","MEAN_MOTION":15.77175584,"ECCENTRICITY":0.0001283,"INCLINATION":53.1599,"RA_OF_ASC_NODE":26.1127,"ARG_OF_PERICENTER":114.2286,"MEAN_ANOMALY":156.494,"EPHEMERIS_TYPE":0,"CLASSIFICATION_TYPE":"U","NORAD_CAT_ID":68066,"ELEMENT_SET_NO":999,"REV_AT_EPOCH":352,"BSTAR":-0.012558,"MEAN_MOTION_DOT":-0.01835887,"MEAN_MOTION_DDOT":0},{"OBJECT_NAME":"STARLINK-36929","OBJECT_ID":"2026-041AD","EPOCH":"2026-03-16T20:00:01.999008","MEAN_MOTION":15.7523563,"ECCENTRICITY":9.02e-5,"INCLINATION":53.16,"RA_OF_ASC_NODE":26.1583,"ARG_OF_PERICENTER":108.6581,"MEAN_ANOMALY":139.8194,"EPHEMERIS_TYPE":0,"CLASSIFICATION_TYPE":"U","NORAD_CAT_ID":68067,"ELEMENT_SET_NO":999,"REV_AT_EPOCH":352,"BSTAR":-0.00013072,"MEAN_MOTION_DOT":-0.00020624,"MEAN_MOTION_DDOT":0},{"OBJECT_NAME":"STARLINK-36990","OBJECT_ID":"2026-041AE","EPOCH":"2026-03-16T18:00:01.999296","MEAN_MOTION":15.80822492,"ECCENTRICITY":9.82e-5,"INCLINATION":53.1594,"RA_OF_ASC_NODE":26.5092,"ARG_OF_PERICENTER":119.1257,"MEAN_ANOMALY":47.157,"EPHEMERIS_TYPE":0,"CLASSIFICATION_TYPE":"U","NORAD_CAT_ID":68068,"ELEMENT_SET_NO":999,"REV_AT_EPOCH":351,"BSTAR":0.00059442,"MEAN_MOTION_DOT":0.00117959,"MEAN_MOTION_DDOT":0},{"OBJECT_NAME":"STARLINK-36766","OBJECT_ID":"2026-042A","EPOCH":"2026-03-16T06:00:02.999808","MEAN_MOTION":15.82411989,"ECCENTRICITY":0.00012278,"INCLINATION":53.1596,"RA_OF_ASC_NODE":161.9035,"ARG_OF_PERICENTER":95.2869,"MEAN_ANOMALY":143.7969,"EPHEMERIS_TYPE":0,"CLASSIFICATION_TYPE":"U","NORAD_CAT_ID":68069,"ELEMENT_SET_NO":999,"REV_AT_EPOCH":309,"BSTAR":-0.0074445017,"MEAN_MOTION_DOT":-0.01405507,"MEAN_MOTION_DDOT":0},{"OBJECT_NAME":"STARLINK-36823","OBJECT_ID":"2026-042B","EPOCH":"2026-03-16T06:00:02.999808","MEAN_MOTION":15.82517744,"ECCENTRICITY":0.00010879,"INCLINATION":53.1594,"RA_OF_ASC_NODE":161.8947,"ARG_OF_PERICENTER":100.6697,"MEAN_ANOMALY":142.5161,"EPHEMERIS_TYPE":0,"CLASSIFICATION_TYPE":"U","NORAD_CAT_ID":68070,"ELEMENT_SET_NO":999,"REV_AT_EPOCH":309,"BSTAR":-0.0076864877,"MEAN_MOTION_DOT":-0.01452367,"MEAN_MOTION_DDOT":0},{"OBJECT_NAME":"STARLINK-36970","OBJECT_ID":"2026-042C","EPOCH":"2026-03-16T06:00:02.999808","MEAN_MOTION":15.82702596,"ECCENTRICITY":0.00011493,"INCLINATION":53.1596,"RA_OF_ASC_NODE":161.878,"ARG_OF_PERICENTER":92.6874,"MEAN_ANOMALY":158.6472,"EPHEMERIS_TYPE":0,"CLASSIFICATION_TYPE":"U","NORAD_CAT_ID":68071,"ELEMENT_SET_NO":999,"REV_AT_EPOCH":310,"BSTAR":-0.0072994676,"MEAN_MOTION_DOT":-0.01371375,"MEAN_MOTION_DDOT":0},{"OBJECT_NAME":"STARLINK-36972","OBJECT_ID":"2026-042D","EPOCH":"2026-03-16T06:00:02.999808","MEAN_MOTION":15.82644648,"ECCENTRICITY":0.00011141,"INCLINATION":53.1596,"RA_OF_ASC_NODE":161.8866,"ARG_OF_PERICENTER":94.2799,"MEAN_ANOMALY":152.9157,"EPHEMERIS_TYPE":0,"CLASSIFICATION_TYPE":"U","NORAD_CAT_ID":68072,"ELEMENT_SET_NO":999,"REV_AT_EPOCH":310,"BSTAR":-0.0074956839,"MEAN_MOTION_DOT":-0.01427964,"MEAN_MOTION_DDOT":0}]
